NORAD_CAT_ID,OBJECT_NAME,OBJECT_TYPE,EPOCH,MEAN_MOTION,ECCENTRICITY,INCLINATION,RA_OF_ASC_NODE,ARG_OF_PERICENTER,MEAN_ANOMALY,BSTAR,MEAN_MOTION_DOT,MEAN_MOTION_DDOT,TLE_LINE0,TLE_LINE1,TLE_LINE2,SEMIMAJOR_AXIS,PERIOD,APOGEE,PERIGEE,DECAYED
52694.0,STARLINK-4072,PAYLOAD,2024-07-26 17:22:31,15.08853944,0.0001599,53.2144,277.072,67.954,292.1622,0.0015179,0.00023961,0.0,0 STARLINK-4072,1 52694U 22053AQ  24208.72397182  .00023961  00000-0  15179-2 0  9999,2 52694  53.2144 277.0720 0001599  67.9540 292.1622 15.08853944121934,6917.838,95.437,540.809,538.597,0.0
52694.0,STARLINK-4072,PAYLOAD,2024-07-27 09:16:23,15.0882516,0.0001598,53.2147,274.0984,72.4869,287.6297,0.00093373,0.00014598,0.0,0 STARLINK-4072,1 52694U 22053AQ  24209.38638521  .00014598  00000-0  93373-3 0  9996,2 52694  53.2147 274.0984 0001598  72.4869 287.6297 15.08825160121633,6917.926,95.438,540.896,538.685,0.0
52694.0,STARLINK-4072,PAYLOAD,2024-07-27 15:37:56,15.08833852,0.0001597,53.2148,272.9089,70.7107,289.4058,0.0015004,0.00023668,0.0,0 STARLINK-4072,1 52694U 22053AQ  24209.65134733  .00023668  00000-0  15004-2 0  9994,2 52694  53.2148 272.9089 0001597  70.7107 289.4058 15.08833852122073,6917.899,95.438,540.869,538.659,0.0
52694.0,STARLINK-4072,PAYLOAD,2024-07-28 10:42:34,15.08843113,0.000158,53.215,269.3399,79.995,280.122,0.00068899,0.00010695,0.0,0 STARLINK-4072,1 52694U 22053AQ  24210.44622965  .00010695  00000-0  68899-3 0  9999,2 52694  53.2150 269.3399 0001580  79.9950 280.1220 15.08843113121797,6917.871,95.437,540.829,538.643,0.0
52694.0,STARLINK-4072,PAYLOAD,2024-07-28 15:28:43,15.08852343,0.0001603,53.2151,268.4473,79.4281,280.6892,0.00090268,0.00014112,0.0,0 STARLINK-4072,1 52694U 22053AQ  24210.64494807  .00014112  00000-0  90268-3 0  9996,2 52694  53.2151 268.4473 0001603  79.4281 280.6892 15.08852343122223,6917.843,95.437,540.817,538.599,0.0
52694.0,STARLINK-4072,PAYLOAD,2024-07-29 10:33:21,15.08843663,0.0001495,53.2157,264.879,81.111,279.0051,0.00034129,5.148e-05,0.0,0 STARLINK-4072,1 52694U 22053AQ  24211.43983073  .00005148  00000-0  34129-3 0  9995,2 52694  53.2157 264.8790 0001495  81.1110 279.0051 15.08843663121943,6917.869,95.437,540.768,538.7,0.0
52694.0,STARLINK-4072,PAYLOAD,2024-07-29 13:44:07,15.08845265,0.0001509,53.216,264.284,80.7349,279.3813,0.00038641,5.868e-05,0.0,0 STARLINK-4072,1 52694U 22053AQ  24211.57231057  .00005868  00000-0  38641-3 0  9990,2 52694  53.2160 264.2840 0001509  80.7349 279.3813 15.08845265122368,6917.864,95.437,540.773,538.685,0.0
52694.0,STARLINK-4072,PAYLOAD,2024-07-29 20:05:40,15.08833288,0.000159,53.2158,263.0943,81.388,278.7292,-1.762e-05,-5.68e-06,0.0,0 STARLINK-4072,1 52694U 22053AQ  24211.83727277 -.00000568  00000-0 -17620-4 0  9992,2 52694  53.2158 263.0943 0001590  81.3880 278.7292 15.08833288122000,6917.901,95.438,540.866,538.666,0.0
52694.0,STARLINK-4072,PAYLOAD,2024-07-30 10:24:08,15.0884263,0.0001418,53.2153,260.4188,83.0688,277.0465,0.00040913,6.23e-05,0.0,0 STARLINK-4072,1 52694U 22053AQ  24212.43343306  .00006230  00000-0  40913-3 0  9996,2 52694  53.2153 260.4188 0001418  83.0688 277.0465 15.08842630122499,6917.872,95.437,540.718,538.756,0.0
52694.0,STARLINK-4072,PAYLOAD,2024-07-30 19:56:27,15.08849843,0.0001381,53.2152,258.6344,81.8447,278.2701,0.00075166,0.00011698,0.0,0 STARLINK-4072,1 52694U 22053AQ  24212.83087283  .00011698  00000-0  75166-3 0  9991,2 52694  53.2152 258.6344 0001381  81.8447 278.2701 15.08849843122151,6917.85,95.437,540.671,538.76,0.0
52694.0,STARLINK-4072,PAYLOAD,2024-07-31 10:14:55,15.08863704,0.0001371,53.2148,255.9585,85.4631,274.6518,0.00084012,0.00013116,0.0,0 STARLINK-4072,1 52694U 22053AQ  24213.42702669  .00013116  00000-0  84012-3 0  9996,2 52694  53.2148 255.9585 0001371  85.4631 274.6518 15.08863704122649,6917.808,95.436,540.621,538.725,0.0
52694.0,STARLINK-4072,PAYLOAD,2024-07-31 19:47:13,15.08853287,0.000125,53.2138,254.1749,80.5109,279.6024,0.00025335,3.748e-05,0.0,0 STARLINK-4072,1 52694U 22053AQ  24213.82446473  .00003748  00000-0  25335-3 0  9991,2 52694  53.2138 254.1749 0001250  80.5109 279.6024 15.08853287122308,6917.84,95.437,540.57,538.84,0.0
52694.0,STARLINK-4072,PAYLOAD,2024-08-01 10:05:42,15.08845937,0.0001427,53.2145,251.4991,80.7034,279.4119,0.00025626,3.793e-05,0.0,0 STARLINK-4072,1 52694U 22053AQ  24214.42062883  .00003793  00000-0  25626-3 0  9990,2 52694  53.2145 251.4991 0001427  80.7034 279.4119 15.08845937122395,6917.862,95.437,540.714,538.74,0.0
52694.0,STARLINK-4072,PAYLOAD,2024-08-01 19:38:01,15.08841111,0.0001397,53.2139,249.7143,80.5993,279.5157,0.0002528,3.738e-05,0.0,0 STARLINK-4072,1 52694U 22053AQ  24214.81807064  .00003738  00000-0  25280-3 0  9996,2 52694  53.2139 249.7143 0001397  80.5993 279.5157 15.08841111122859,6917.877,95.437,540.708,538.776,0.0
52694.0,STARLINK-4072,PAYLOAD,2024-08-02 11:31:52,15.08843148,0.0001462,53.214,246.7412,79.394,280.7217,0.00049991,7.678e-05,0.0,0 STARLINK-4072,1 52694U 22053AQ  24215.48047346  .00007678  00000-0  49991-3 0  9991,2 52694  53.2140 246.7412 0001462  79.3940 280.7217 15.08843148122952,6917.871,95.437,540.747,538.724,0.0
52694.0,STARLINK-4072,PAYLOAD,2024-08-03 01:50:21,15.08840744,0.000153,53.2138,244.0654,78.6349,281.4814,0.00026702,3.964e-05,0.0,0 STARLINK-4072,1 52694U 22053AQ  24216.07663536  .00003964  00000-0  26702-3 0  9991,2 52694  53.2138 244.0654 0001530  78.6349 281.4814 15.08840744122645,6917.878,95.438,540.802,538.685,0.0
52694.0,STARLINK-4072,PAYLOAD,2024-08-03 08:11:53,15.088422,0.0001451,53.2135,242.8743,81.2973,278.8183,0.00025698,3.804e-05,0.0,0 STARLINK-4072,1 52694U 22053AQ  24216.34159502  .00003804  00000-0  25698-3 0  9990,2 52694  53.2135 242.8743 0001451  81.2973 278.8183 15.08842200123089,6917.874,95.437,540.742,538.735,0.0
52694.0,STARLINK-4072,PAYLOAD,2024-08-04 04:51:54,15.08842849,0.0001443,53.2134,239.008,82.266,277.8496,0.00019474,2.813e-05,0.0,0 STARLINK-4072,1 52694U 22053AQ  24217.20271564  .00002813  00000-0  19474-3 0  9993,2 52694  53.2134 239.0080 0001443  82.2660 277.8496 15.08842849122810,6917.872,95.437,540.735,538.738,0.0
52694.0,STARLINK-4072,PAYLOAD,2024-08-04 11:13:26,15.08847136,0.0001498,53.2145,237.8176,91.1502,268.9662,0.00019032,2.743e-05,0.0,0 STARLINK-4072,1 52694U 22053AQ  24217.46767287  .00002743  00000-0  19032-3 0  9995,2 52694  53.2145 237.8176 0001498  91.1502 268.9662 15.08847136123257,6917.859,95.437,540.76,538.687,0.0
52694.0,STARLINK-4072,PAYLOAD,2024-08-05 07:53:27,15.08845057,0.0001481,53.2142,233.9513,92.3969,267.7192,0.00013274,1.825e-05,0.0,0 STARLINK-4072,1 52694U 22053AQ  24218.32879254  .00001825  00000-0  13274-3 0  9991,2 52694  53.2142 233.9513 0001481  92.3969 267.7192 15.08845057122982,6917.865,95.437,540.754,538.705,0.0
52694.0,STARLINK-4072,PAYLOAD,2024-08-06 04:33:29,15.08830433,0.0001468,53.2152,230.0851,94.6388,265.4771,-4.1377e-05,-9.46e-06,0.0,0 STARLINK-4072,1 52694U 22053AQ  24219.18992540 -.00000946  00000-0 -41377-4 0  9991,2 52694  53.2152 230.0851 0001468  94.6388 265.4771 15.08830433123117,6917.91,95.438,540.79,538.759,0.0
52694.0,STARLINK-4072,PAYLOAD,2024-08-06 07:44:15,15.08831429,0.0001448,53.2156,229.4907,93.6748,266.441,-4.0542e-05,-9.33e-06,0.0,0 STARLINK-4072,1 52694U 22053AQ  24219.32240490 -.00000933  00000-0 -40542-4 0  9996,2 52694  53.2156 229.4907 0001448  93.6748 266.4410 15.08831429123535,6917.907,95.438,540.773,538.77,0.0
52694.0,STARLINK-4072,PAYLOAD,2024-08-06 17:16:34,15.08834178,0.0001398,53.2156,227.7066,91.6985,268.4168,-1.4874e-05,-5.25e-06,0.0,0 STARLINK-4072,1 52694U 22053AQ  24219.71984402 -.00000525  00000-0 -14874-4 0  9993,2 52694  53.2156 227.7066 0001398  91.6985 268.4168 15.08834178123599,6917.898,95.438,540.73,538.796,0.0
52694.0,STARLINK-4072,PAYLOAD,2024-08-07 04:24:16,15.0883679,0.0001306,53.2152,225.6253,93.6062,266.5079,3.409e-05,2.55e-06,0.0,0 STARLINK-4072,1 52694U 22053AQ  24220.18352250  .00000255  00000-0  34090-4 0  9996,2 52694  53.2152 225.6253 0001306  93.6062 266.5079 15.08836790123263,6917.89,95.438,540.659,538.852,0.0
52694.0,STARLINK-4072,PAYLOAD,2024-08-08 09:01:12,15.08841515,0.0001314,53.2153,220.2727,95.6182,264.496,0.00017804,2.547e-05,0.0,0 STARLINK-4072,1 52694U 22053AQ  24221.37584003  .00002547  00000-0  17804-3 0  9990,2 52694  53.2153 220.2727 0001314  95.6182 264.4960 15.08841515123846,6917.876,95.437,540.65,538.832,0.0
52694.0,STARLINK-4072,PAYLOAD,2024-08-09 04:05:50,15.08840523,0.0001459,53.2161,216.7038,97.5857,262.53,5.5956e-05,6.03e-06,0.0,0 STARLINK-4072,1 52694U 22053AQ  24222.17072492  .00000603  00000-0  55956-4 0  9995,2 52694  53.2161 216.7038 0001459  97.5857 262.5300 15.08840523123564,6917.879,95.438,540.753,538.734,0.0
52694.0,STARLINK-4072,PAYLOAD,2024-08-09 08:51:59,15.08844856,0.0001457,53.2162,215.8097,95.0737,265.0421,8.2684e-05,1.028e-05,0.0,0 STARLINK-4072,1 52694U 22053AQ  24222.36944109  .00001028  00000-0  82684-4 0  9999,2 52694  53.2162 215.8097 0001457  95.0737 265.0421 15.08844856123990,6917.866,95.437,540.738,538.723,0.0
52694.0,STARLINK-4072,PAYLOAD,2024-08-10 03:56:37,15.08841413,0.0001505,53.2165,212.2407,89.5208,270.5957,2.1246e-05,5e-07,0.0,0 STARLINK-4072,1 52694U 22053AQ  24223.16432508  .00000050  00000-0  21246-4 0  9994,2 52694  53.2165 212.2407 0001505  89.5208 270.5957 15.08841413124110,6917.876,95.437,540.782,538.7,0.0
52694.0,STARLINK-4072,PAYLOAD,2024-08-11 08:33:33,15.08850357,0.0001879,53.2174,206.8851,66.7959,293.3231,0.00010433,1.373e-05,0.0,0 STARLINK-4072,1 52694U 22053AQ  24224.35663821  .00001373  00000-0  10433-3 0  9994,2 52694  53.2174 206.8851 0001879  66.7959 293.3231 15.08850357123895,6917.849,95.437,541.014,538.414,0.0
52694.0,STARLINK-4072,PAYLOAD,2024-08-12 02:02:48,15.08843591,0.0002003,53.2178,203.6137,115.004,245.1161,7.6527e-05,9.3e-06,0.0,0 STARLINK-4072,1 52694U 22053AQ  24225.08528068  .00000930  00000-0  76527-4 0  9993,2 52694  53.2178 203.6137 0002003 115.0040 245.1161 15.08843591124003,6917.869,95.437,541.12,538.349,0.0
